{"type": "FeatureCollection", "features": [ {"type": "Feature", "properties": {"norad_id": 31255, "name": "FENGYUN 1C DEB", "group": "fengyun-1c-debris", "lat": 36.31968448316233, "lon": 5.925115110275317, "alt_km": 1040.3273016227722, "timestamp": "2025-12-27T09:28:56.757815+00:00", "meta": {"OBJECT_NAME": "FENGYUN 1C DEB", "OBJECT_ID": "1999-025BMM", "EPOCH": "2025-12-26T22:34:07.753728", "MEAN_MOTION": 14.09751279, "ECCENTRICITY": 0.027025, "INCLINATION": 99.3085, "RA_OF_ASC_NODE": 178.5297, "ARG_OF_PERICENTER": 303.8964, "MEAN_ANOMALY": 53.6765, "EPHEMERIS_TYPE": 0, "CLASSIFICATION_TYPE": "U", "NORAD_CAT_ID": 31255, "ELEMENT_SET_NO": 999, "REV_AT_EPOCH": 97001, "BSTAR": 0.00040862, "MEAN_MOTION_DOT": 9.53e-06, "MEAN_MOTION_DDOT": 0}, "tle": {"line1": "1 31255U 99025BMM 25360.94036752  .00000953  00000+0  40862-3 0  9992", "line2": "2 31255  99.3085 178.5297 0270250 303.8964  53.6765 14.09751279970014"}}, "geometry": {"type": "Point", "coordinates": [5.925115110275317, 36.31968448316233]}}, {"type": "Feature", "properties": {"norad_id": 31256, "name": "FENGYUN 1C DEB", "group": "fengyun-1c-debris", "lat": 33.450054272697756, "lon": -157.3810353753522, "alt_km": 702.531693579609, "timestamp": "2025-12-27T09:28:56.757825+00:00", "meta": {"OBJECT_NAME": "FENGYUN 1C DEB", "OBJECT_ID": "1999-025BMN", "EPOCH": "2025-12-27T00:46:18.927264", "MEAN_MOTION": 14.03429585, "ECCENTRICITY": 0.0308445, "INCLINATION": 98.6801, "RA_OF_ASC_NODE": 208.0641, "ARG_OF_PERICENTER": 73.7821, "MEAN_ANOMALY": 289.7048, "EPHEMERIS_TYPE": 0, "CLASSIFICATION_TYPE": "U", "NORAD_CAT_ID": 31256, "ELEMENT_SET_NO": 999, "REV_AT_EPOCH": 65182, "BSTAR": 0.0023984, "MEAN_MOTION_DOT": 5.687e-05, "MEAN_MOTION_DDOT": 0}, "tle": {"line1": "1 31256U 99025BMN 25361.03216351  .00005687  00000+0  23984-2 0  9993", "line2": "2 31256  98.6801 208.0641 0308445  73.7821 289.7048 14.03429585651825"}}, "geometry": {"type": "Point", "coordinates": [-157.3810353753522, 33.450054272697756]}}, {"type": "Feature", "properties": {"norad_id": 31258, "name": "FENGYUN 1C DEB", "group": "fengyun-1c-debris", "lat": -78.44766629843893, "lon": -157.70318058958767, "alt_km": 514.6361733412341, "timestamp": "2025-12-27T09:28:56.757836+00:00", "meta": {"OBJECT_NAME": "FENGYUN 1C DEB", "OBJECT_ID": "1999-025BMQ", "EPOCH": "2025-12-26T21:51:16.265088", "MEAN_MOTION": 15.17650103, "ECCENTRICITY": 0.0008746, "INCLINATION": 98.8459, "RA_OF_ASC_NODE": 152.0986, "ARG_OF_PERICENTER": 314.7479, "MEAN_ANOMALY": 197.132, "EPHEMERIS_TYPE": 0, "CLASSIFICATION_TYPE": "U", "NORAD_CAT_ID": 31258, "ELEMENT_SET_NO": 999, "REV_AT_EPOCH": 97325, "BSTAR": 0.012107, "MEAN_MOTION_DOT": 0.00252257, "MEAN_MOTION_DDOT": 0}, "tle": {"line1": "1 31258U 99025BMQ 25360.91060492  .00252257  00000+0  12107-1 0  9995", "line2": "2 31258  98.8459 152.0986 0008746 314.7479 197.1320 15.17650103973253"}}, "geometry": {"type": "Point", "coordinates": [-157.70318058958767, -78.44766629843893]}}, {"type": "Feature", "properties": {"norad_id": 31259, "name": "FENGYUN 1C DEB", "group": "fengyun-1c-debris", "lat": -45.244538510766, "lon": 89.94048184008737, "alt_km": 892.6496114329066, "timestamp": "2025-12-27T09:28:56.757847+00:00", "meta": {"OBJECT_NAME": "FENGYUN 1C DEB", "OBJECT_ID": "1999-025BMR", "EPOCH": "2025-12-27T04:42:24.121728", "MEAN_MOTION": 14.15118357, "ECCENTRICITY": 0.0065711, "INCLINATION": 99.0083, "RA_OF_ASC_NODE": 80.5331, "ARG_OF_PERICENTER": 156.3095, "MEAN_ANOMALY": 224.3561, "EPHEMERIS_TYPE": 0, "CLASSIFICATION_TYPE": "U", "NORAD_CAT_ID": 31259, "ELEMENT_SET_NO": 999, "REV_AT_EPOCH": 95774, "BSTAR": 0.0018698, "MEAN_MOTION_DOT": 3.66e-05, "MEAN_MOTION_DDOT": 0}, "tle": {"line1": "1 31259U 99025BMR 25361.19611252  .00003660  00000+0  18698-2 0  9997", "line2": "2 31259  99.0083  80.5331 0065711 156.3095 224.3561 14.15118357957741"}}, "geometry": {"type": "Point", "coordinates": [89.94048184008737, -45.244538510766]}}, {"type": "Feature", "properties": {"norad_id": 31260, "name": "FENGYUN 1C DEB", "group": "fengyun-1c-debris", "lat": 79.6594104135711, "lon": -160.8858166995313, "alt_km": 794.4720549933536, "timestamp": "2025-12-27T09:28:56.757857+00:00", "meta": {"OBJECT_NAME": "FENGYUN 1C DEB", "OBJECT_ID": "1999-025BMS", "EPOCH": "2025-12-27T04:47:10.726944", "MEAN_MOTION": 14.36509684, "ECCENTRICITY": 0.0046323, "INCLINATION": 98.9562, "RA_OF_ASC_NODE": 258.7139, "ARG_OF_PERICENTER": 249.4457, "MEAN_ANOMALY": 264.2015, "EPHEMERIS_TYPE": 0, "CLASSIFICATION_TYPE": "U", "NORAD_CAT_ID": 31260, "ELEMENT_SET_NO": 999, "REV_AT_EPOCH": 97401, "BSTAR": 0.0011593, "MEAN_MOTION_DOT": 3.398e-05, "MEAN_MOTION_DDOT": 0}, "tle": {"line1": "1 31260U 99025BMS 25361.19942971  .00003398  00000+0  11593-2 0  9999", "line2": "2 31260  98.9562 258.7139 0046323 249.4457 264.2015 14.36509684974018"}}, "geometry": {"type": "Point", "coordinates": [-160.8858166995313, 79.6594104135711]}}, {"type": "Feature", "properties": {"norad_id": 31261, "name": "FENGYUN 1C DEB", "group": "fengyun-1c-debris", "lat": -64.54810703839878, "lon": -24.93591663527557, "alt_km": 774.4022139939498, "timestamp": "2025-12-27T09:28:56.757867+00:00", "meta": {"OBJECT_NAME": "FENGYUN 1C DEB", "OBJECT_ID": "1999-025BMT", "EPOCH": "2025-12-27T03:07:16.859136", "MEAN_MOTION": 14.40166545, "ECCENTRICITY": 0.0050158, "INCLINATION": 99.017, "RA_OF_ASC_NODE": 315.2956, "ARG_OF_PERICENTER": 189.4287, "MEAN_ANOMALY": 170.5962, "EPHEMERIS_TYPE": 0, "CLASSIFICATION_TYPE": "U", "NORAD_CAT_ID": 31261, "ELEMENT_SET_NO": 999, "REV_AT_EPOCH": 97557, "BSTAR": 0.0010532, "MEAN_MOTION_DOT": 3.331e-05, "MEAN_MOTION_DDOT": 0}, "tle": {"line1": "1 31261U 99025BMT 25361.13005624  .00003331  00000+0  10532-2 0  9998", "line2": "2 31261  99.0170 315.2956 0050158 189.4287 170.5962 14.40166545975579"}}, "geometry": {"type": "Point", "coordinates": [-24.93591663527557, -64.54810703839878]}}, {"type": "Feature", "properties": {"norad_id": 31262, "name": "FENGYUN 1C DEB", "group": "fengyun-1c-debris", "lat": -57.30585020710071, "lon": -109.2415857863949, "alt_km": 877.5675198887902, "timestamp": "2025-12-27T09:28:56.757878+00:00", "meta": {"OBJECT_NAME": "FENGYUN 1C DEB", "OBJECT_ID": "1999-025BMU", "EPOCH": "2025-12-23T04:36:31.658976", "MEAN_MOTION": 14.18250623, "ECCENTRICITY": 0.00545996, "INCLINATION": 99.0016, "RA_OF_ASC_NODE": 80.7949, "ARG_OF_PERICENTER": 68.7564, "MEAN_ANOMALY": 321.7706, "EPHEMERIS_TYPE": 0, "CLASSIFICATION_TYPE": "U", "NORAD_CAT_ID": 31262, "ELEMENT_SET_NO": 999, "REV_AT_EPOCH": 95857, "BSTAR": 0.0016102319, "MEAN_MOTION_DOT": 3.318e-05, "MEAN_MOTION_DDOT": 0}, "tle": {"line1": "1 31262U 99025BMU 25357.19203309  .00003318  00000+0  16102-2 0  9994", "line2": "2 31262  99.0016  80.7949 0054599  68.7564 321.7706 14.18250623958578"}}, "geometry": {"type": "Point", "coordinates": [-109.2415857863949, -57.30585020710071]}}, {"type": "Feature", "properties": {"norad_id": 31264, "name": "FENGYUN 1C DEB", "group": "fengyun-1c-debris", "lat": -50.231207168543385, "lon": 67.65735550506443, "alt_km": 837.2596690122073, "timestamp": "2025-12-27T09:28:56.757895+00:00", "meta": {"OBJECT_NAME": "FENGYUN 1C DEB", "OBJECT_ID": "1999-025BMW", "EPOCH": "2025-12-26T11:13:17.508000", "MEAN_MOTION": 14.18622028, "ECCENTRICITY": 7.53e-05, "INCLINATION": 99.1148, "RA_OF_ASC_NODE": 257.8268, "ARG_OF_PERICENTER": 11.1976, "MEAN_ANOMALY": 165.5082, "EPHEMERIS_TYPE": 0, "CLASSIFICATION_TYPE": "U", "NORAD_CAT_ID": 31264, "ELEMENT_SET_NO": 999, "REV_AT_EPOCH": 96623, "BSTAR": 0.000578, "MEAN_MOTION_DOT": 1.151e-05, "MEAN_MOTION_DDOT": 0}, "tle": {"line1": "1 31264U 99025BMW 25360.46756375  .00001151  00000+0  57800-3 0  9990", "line2": "2 31264  99.1148 257.8268 0000753  11.1976 165.5082 14.18622028966235"}}, "geometry": {"type": "Point", "coordinates": [67.65735550506443, -50.231207168543385]}}, {"type": "Feature", "properties": {"norad_id": 31266, "name": "FENGYUN 1C DEB", "group": "fengyun-1c-debris", "lat": 76.90775784766116, "lon": -150.29853943800504, "alt_km": 884.0989775151656, "timestamp": "2025-12-27T09:28:56.757907+00:00", "meta": {"OBJECT_NAME": "FENGYUN 1C DEB", "OBJECT_ID": "1999-025BMY", "EPOCH": "2025-12-26T18:24:30.279168", "MEAN_MOTION": 14.22355361, "ECCENTRICITY": 0.01295023, "INCLINATION": 99.2588, "RA_OF_ASC_NODE": 344.5021, "ARG_OF_PERICENTER": 244.0586, "MEAN_ANOMALY": 241.8089, "EPHEMERIS_TYPE": 0, "CLASSIFICATION_TYPE": "U", "NORAD_CAT_ID": 31266, "ELEMENT_SET_NO": 999, "REV_AT_EPOCH": 97405, "BSTAR": 0.00029063007, "MEAN_MOTION_DOT": 6.55e-06, "MEAN_MOTION_DDOT": 0}, "tle": {"line1": "1 31266U 99025BMY 25360.76701712  .00000655  00000+0  29063-3 0  9998", "line2": "2 31266  99.2588 344.5021 0129502 244.0586 241.8089 14.22355361974057"}}, "geometry": {"type": "Point", "coordinates": [-150.29853943800504, 76.90775784766116]}}, {"type": "Feature", "properties": {"norad_id": 31268, "name": "FENGYUN 1C DEB", "group": "fengyun-1c-debris", "lat": 53.581101058495335, "lon": -124.81948093956936, "alt_km": 832.0123977916373, "timestamp": "2025-12-27T09:28:56.757918+00:00", "meta": {"OBJECT_NAME": "FENGYUN 1C DEB", "OBJECT_ID": "1999-025BNA", "EPOCH": "2025-12-13T20:28:59.966112", "MEAN_MOTION": 14.06415523, "ECCENTRICITY": 0.00495712, "INCLINATION": 98.7556, "RA_OF_ASC_NODE": 30.024, "ARG_OF_PERICENTER": 180.2607, "MEAN_ANOMALY": 179.8544, "EPHEMERIS_TYPE": 0, "CLASSIFICATION_TYPE": "U", "NORAD_CAT_ID": 31268, "ELEMENT_SET_NO": 999, "REV_AT_EPOCH": 62048, "BSTAR": 0.00090714334, "MEAN_MOTION_DOT": 1.473e-05, "MEAN_MOTION_DDOT": 0}, "tle": {"line1": "1 31268U 99025BNA 25347.85347183  .00001473  00000+0  90714-3 0  9993", "line2": "2 31268  98.7556  30.0240 0049571 180.2607 179.8544 14.06415523620480"}}, "geometry": {"type": "Point", "coordinates": [-124.81948093956936, 53.581101058495335]}}]}